BEIDOU-3 M9             
1 43245U 18029A   25320.31251774 -.00000081  00000+0  00000+0 0  9998
2 43245  54.3897 307.3889 0001854 265.3448  94.6308  1.86228363 51931
BEIDOU-3 M10            
1 43246U 18029B   25321.32180461 -.00000083  00000+0  00000+0 0  9997
2 43246  54.3863 307.3815 0003676 356.5010   3.4906  1.86229142 51934
IRNSS-1I                
1 43286U 18035A   25321.90391905  .00000098  00000+0  00000+0 0  9994
2 43286  29.0922  77.4840 0021195 180.5007 179.6446  1.00273994 27964
COSMOS 2527 [GLONASS-M] 
1 43508U 18053A   25321.91709420 -.00000029  00000+0  00000+0 0  9992
2 43508  65.4597  80.9612 0008358 220.2318 139.6873  2.13102227 57779
BEIDOU-2 IGSO-7         
1 43539U 18057A   25320.00657169 -.00000042  00000+0  00000+0 0  9996
2 43539  55.1708 164.9059 0091931 235.3968 129.5278  1.00265453 26991
GSAT0221 (GALILEO 25)   
1 43564U 18060A   25320.72108969 -.00000084  00000+0  00000+0 0  9992
2 43564  57.2334 347.5210 0006380 275.8944  84.0862  1.70476106 45544
GSAT0222 (GALILEO 26)   
1 43565U 18060B   25321.52697353 -.00000082  00000+0  00000+0 0  9990
2 43565  57.2370 347.5022 0006101 256.1599 103.8257  1.70475841 45605
GSAT0219 (GALILEO 23)   
1 43566U 18060C   25321.74814576 -.00000081  00000+0  00000+0 0  9992
2 43566  57.2358 347.4977 0005552 280.7493  79.2417  1.70476131 45589
GSAT0220 (GALILEO 24)   
1 43567U 18060D   25320.79589905 -.00000084  00000+0  00000+0 0  9995
2 43567  57.2360 347.5233 0005764 276.8683  83.1195  1.70476116 45558
BEIDOU-3 M5             
1 43581U 18062A   25321.54662940  .00000072  00000+0  00000+0 0  9994
2 43581  54.0888 189.5008 0002395 341.0049  19.0861  1.86228890 49694
BEIDOU-3 M6             
1 43582U 18062B   25321.94679925  .00000075  00000+0  00000+0 0  9993
2 43582  54.0886 189.4764 0007575  42.7486 317.4119  1.86229951 49708
BEIDOU-3 M12            
1 43602U 18067A   25321.88435322  .00000077  00000+0  00000+0 0  9997
2 43602  54.1830 188.2070 0009026  39.0032 321.1635  1.86227747 49185
BEIDOU-3 M11            
1 43603U 18067B   25321.48183406  .00000074  00000+0  00000+0 0  9994
2 43603  54.1803 188.1847 0005481  33.5829 326.5519  1.86227267 49201
