[
    {
        "OBJECT_NAME": "BEIDOU-3 M9 (C29)",
        "OBJECT_ID": "2018-029A",
        "EPOCH": "2025-11-16T07:30:01.532736",
        "MEAN_MOTION": 1.86228363,
        "ECCENTRICITY": 0.00018548,
        "INCLINATION": 54.3897,
        "RA_OF_ASC_NODE": 307.3889,
        "ARG_OF_PERICENTER": 265.3448,
        "MEAN_ANOMALY": 94.6308,
        "EPHEMERIS_TYPE": 0,
        "CLASSIFICATION_TYPE": "U",
        "NORAD_CAT_ID": 43245,
        "ELEMENT_SET_NO": 999,
        "REV_AT_EPOCH": 5193,
        "BSTAR": 0,
        "MEAN_MOTION_DOT": -8.1e-7,
        "MEAN_MOTION_DDOT": 0
    },
    {
        "OBJECT_NAME": "BEIDOU-3 M10 (C30)",
        "OBJECT_ID": "2018-029B",
        "EPOCH": "2025-11-17T07:43:23.918304",
        "MEAN_MOTION": 1.86229142,
        "ECCENTRICITY": 0.00036762,
        "INCLINATION": 54.3863,
        "RA_OF_ASC_NODE": 307.3815,
        "ARG_OF_PERICENTER": 356.501,
        "MEAN_ANOMALY": 3.4906,
        "EPHEMERIS_TYPE": 0,
        "CLASSIFICATION_TYPE": "U",
        "NORAD_CAT_ID": 43246,
        "ELEMENT_SET_NO": 999,
        "REV_AT_EPOCH": 5193,
        "BSTAR": 0,
        "MEAN_MOTION_DOT": -8.3e-7,
        "MEAN_MOTION_DDOT": 0
    },
    {
        "OBJECT_NAME": "IRNSS-1I",
        "OBJECT_ID": "2018-035A",
        "EPOCH": "2025-11-17T21:41:38.605920",
        "MEAN_MOTION": 1.00273994,
        "ECCENTRICITY": 0.0021195,
        "INCLINATION": 29.0922,
        "RA_OF_ASC_NODE": 77.484,
        "ARG_OF_PERICENTER": 180.5007,
        "MEAN_ANOMALY": 179.6446,
        "EPHEMERIS_TYPE": 0,
        "CLASSIFICATION_TYPE": "U",
        "NORAD_CAT_ID": 43286,
        "ELEMENT_SET_NO": 999,
        "REV_AT_EPOCH": 2796,
        "BSTAR": 0,
        "MEAN_MOTION_DOT": 9.8e-7,
        "MEAN_MOTION_DDOT": 0
    },
    {
        "OBJECT_NAME": "COSMOS 2527 (756)",
        "OBJECT_ID": "2018-053A",
        "EPOCH": "2025-11-17T22:00:36.938880",
        "MEAN_MOTION": 2.13102227,
        "ECCENTRICITY": 0.0008358,
        "INCLINATION": 65.4597,
        "RA_OF_ASC_NODE": 80.9612,
        "ARG_OF_PERICENTER": 220.2318,
        "MEAN_ANOMALY": 139.6873,
        "EPHEMERIS_TYPE": 0,
        "CLASSIFICATION_TYPE": "U",
        "NORAD_CAT_ID": 43508,
        "ELEMENT_SET_NO": 999,
        "REV_AT_EPOCH": 5777,
        "BSTAR": 0,
        "MEAN_MOTION_DOT": -2.9e-7,
        "MEAN_MOTION_DDOT": 0
    },
    {
        "OBJECT_NAME": "BEIDOU-2 IGSO-7 (C16)",
        "OBJECT_ID": "2018-057A",
        "EPOCH": "2025-11-16T00:09:27.794016",
        "MEAN_MOTION": 1.00265453,
        "ECCENTRICITY": 0.00919311,
        "INCLINATION": 55.1708,
        "RA_OF_ASC_NODE": 164.9059,
        "ARG_OF_PERICENTER": 235.3968,
        "MEAN_ANOMALY": 129.5278,
        "EPHEMERIS_TYPE": 0,
        "CLASSIFICATION_TYPE": "U",
        "NORAD_CAT_ID": 43539,
        "ELEMENT_SET_NO": 999,
        "REV_AT_EPOCH": 2699,
        "BSTAR": 0,
        "MEAN_MOTION_DOT": -4.2e-7,
        "MEAN_MOTION_DDOT": 0
    },
    {
        "OBJECT_NAME": "GSAT0221 (GALILEO 25)",
        "OBJECT_ID": "2018-060A",
        "EPOCH": "2025-11-16T17:18:22.149216",
        "MEAN_MOTION": 1.70476106,
        "ECCENTRICITY": 0.00063805,
        "INCLINATION": 57.2334,
        "RA_OF_ASC_NODE": 347.521,
        "ARG_OF_PERICENTER": 275.8944,
        "MEAN_ANOMALY": 84.0862,
        "EPHEMERIS_TYPE": 0,
        "CLASSIFICATION_TYPE": "U",
        "NORAD_CAT_ID": 43564,
        "ELEMENT_SET_NO": 999,
        "REV_AT_EPOCH": 4554,
        "BSTAR": 0,
        "MEAN_MOTION_DOT": -8.4e-7,
        "MEAN_MOTION_DDOT": 0
    },
    {
        "OBJECT_NAME": "GSAT0222 (GALILEO 26)",
        "OBJECT_ID": "2018-060B",
        "EPOCH": "2025-11-17T12:38:50.512992",
        "MEAN_MOTION": 1.70475841,
        "ECCENTRICITY": 0.0006101,
        "INCLINATION": 57.237,
        "RA_OF_ASC_NODE": 347.5022,
        "ARG_OF_PERICENTER": 256.1599,
        "MEAN_ANOMALY": 103.8257,
        "EPHEMERIS_TYPE": 0,
        "CLASSIFICATION_TYPE": "U",
        "NORAD_CAT_ID": 43565,
        "ELEMENT_SET_NO": 999,
        "REV_AT_EPOCH": 4560,
        "BSTAR": 0,
        "MEAN_MOTION_DOT": -8.2e-7,
        "MEAN_MOTION_DDOT": 0
    },
    {
        "OBJECT_NAME": "GSAT0219 (GALILEO 23)",
        "OBJECT_ID": "2018-060C",
        "EPOCH": "2025-11-17T17:57:19.793664",
        "MEAN_MOTION": 1.70476131,
        "ECCENTRICITY": 0.0005552,
        "INCLINATION": 57.2358,
        "RA_OF_ASC_NODE": 347.4977,
        "ARG_OF_PERICENTER": 280.7493,
        "MEAN_ANOMALY": 79.2417,
        "EPHEMERIS_TYPE": 0,
        "CLASSIFICATION_TYPE": "U",
        "NORAD_CAT_ID": 43566,
        "ELEMENT_SET_NO": 999,
        "REV_AT_EPOCH": 4558,
        "BSTAR": 0,
        "MEAN_MOTION_DOT": -8.1e-7,
        "MEAN_MOTION_DDOT": 0
    },
    {
        "OBJECT_NAME": "GSAT0220 (GALILEO 24)",
        "OBJECT_ID": "2018-060D",
        "EPOCH": "2025-11-16T19:06:05.677920",
        "MEAN_MOTION": 1.70476116,
        "ECCENTRICITY": 0.00057642,
        "INCLINATION": 57.236,
        "RA_OF_ASC_NODE": 347.5233,
        "ARG_OF_PERICENTER": 276.8683,
        "MEAN_ANOMALY": 83.1195,
        "EPHEMERIS_TYPE": 0,
        "CLASSIFICATION_TYPE": "U",
        "NORAD_CAT_ID": 43567,
        "ELEMENT_SET_NO": 999,
        "REV_AT_EPOCH": 4555,
        "BSTAR": 0,
        "MEAN_MOTION_DOT": -8.4e-7,
        "MEAN_MOTION_DDOT": 0
    },
    {
        "OBJECT_NAME": "BEIDOU-3 M5 (C23)",
        "OBJECT_ID": "2018-062A",
        "EPOCH": "2025-11-17T13:07:08.780160",
        "MEAN_MOTION": 1.8622889,
        "ECCENTRICITY": 0.0002395,
        "INCLINATION": 54.0888,
        "RA_OF_ASC_NODE": 189.5008,
        "ARG_OF_PERICENTER": 341.0049,
        "MEAN_ANOMALY": 19.0861,
        "EPHEMERIS_TYPE": 0,
        "CLASSIFICATION_TYPE": "U",
        "NORAD_CAT_ID": 43581,
        "ELEMENT_SET_NO": 999,
        "REV_AT_EPOCH": 4969,
        "BSTAR": 0,
        "MEAN_MOTION_DOT": 7.2e-7,
        "MEAN_MOTION_DDOT": 0
    },
    {
        "OBJECT_NAME": "BEIDOU-3 M6 (C24)",
        "OBJECT_ID": "2018-062B",
        "EPOCH": "2025-11-17T22:43:23.455200",
        "MEAN_MOTION": 1.86229951,
        "ECCENTRICITY": 0.0007575,
        "INCLINATION": 54.0886,
        "RA_OF_ASC_NODE": 189.4764,
        "ARG_OF_PERICENTER": 42.7486,
        "MEAN_ANOMALY": 317.4119,
        "EPHEMERIS_TYPE": 0,
        "CLASSIFICATION_TYPE": "U",
        "NORAD_CAT_ID": 43582,
        "ELEMENT_SET_NO": 999,
        "REV_AT_EPOCH": 4970,
        "BSTAR": 0,
        "MEAN_MOTION_DOT": 7.5e-7,
        "MEAN_MOTION_DDOT": 0
    },
    {
        "OBJECT_NAME": "BEIDOU-3 M12 (C26)",
        "OBJECT_ID": "2018-067A",
        "EPOCH": "2025-11-17T21:13:28.118208",
        "MEAN_MOTION": 1.86227747,
        "ECCENTRICITY": 0.0009026,
        "INCLINATION": 54.183,
        "RA_OF_ASC_NODE": 188.207,
        "ARG_OF_PERICENTER": 39.0032,
        "MEAN_ANOMALY": 321.1635,
        "EPHEMERIS_TYPE": 0,
        "CLASSIFICATION_TYPE": "U",
        "NORAD_CAT_ID": 43602,
        "ELEMENT_SET_NO": 999,
        "REV_AT_EPOCH": 4918,
        "BSTAR": 0,
        "MEAN_MOTION_DOT": 7.7e-7,
        "MEAN_MOTION_DDOT": 0
    },
    {
        "OBJECT_NAME": "BEIDOU-3 M11 (C25)",
        "OBJECT_ID": "2018-067B",
        "EPOCH": "2025-11-17T11:33:50.462784",
        "MEAN_MOTION": 1.86227267,
        "ECCENTRICITY": 0.0005481,
        "INCLINATION": 54.1803,
        "RA_OF_ASC_NODE": 188.1847,
        "ARG_OF_PERICENTER": 33.5829,
        "MEAN_ANOMALY": 326.5519,
        "EPHEMERIS_TYPE": 0,
        "CLASSIFICATION_TYPE": "U",
        "NORAD_CAT_ID": 43603,
        "ELEMENT_SET_NO": 999,
        "REV_AT_EPOCH": 4920,
        "BSTAR": 0,
        "MEAN_MOTION_DOT": 7.4e-7,
        "MEAN_MOTION_DDOT": 0
    }
]